DRUMS                   
1 49401U 21102G   26068.66810207  .00006670  00000+0  31687-3 0  9992
2 49401  97.3433 108.4998 0014519 215.9930 144.0328 15.19452308238460
STARLINK-6085           
1 57115U 23090Q   26068.53746065  .00027564  00000+0  15302-2 0  9997
2 57115  42.9983 264.1938 0019382 205.4773 154.5119 15.13089153150525
